COMMENT,ORIGINATOR,NORAD_CAT_ID,OBJECT_NAME,OBJECT_TYPE,CLASSIFICATION_TYPE,INTLDES,EPOCH,EPOCH_MICROSECONDS,MEAN_MOTION,ECCENTRICITY,INCLINATION,RA_OF_ASC_NODE,ARG_OF_PERICENTER,MEAN_ANOMALY,EPHEMERIS_TYPE,ELEMENT_SET_NO,REV_AT_EPOCH,BSTAR,MEAN_MOTION_DOT,MEAN_MOTION_DDOT,FILE,TLE_LINE0,TLE_LINE1,TLE_LINE2,OBJECT_ID,OBJECT_NUMBER,SEMIMAJOR_AXIS,PERIOD,APOGEE,PERIGEE
"GENERATED VIA SPACETRACK.ORG API","JSPOC","41100","SL-4 R/B","ROCKET BODY","U","15071C","2016-01-08 11:49:57","454176","15.5818803","0.0278127","98.1809","22.5806","313.183","44.6485","0","999","525","0.00041702","0.00230879","2.6585e-06","1977622","0 SL-4 R/B","1 41100U 15071C   16008.49302609  .00230879  26585-5  41702-3 0  9995","2 41100  98.1809  22.5806 0278127 313.1830  44.6485 15.58188030  5254","2015-071C","41100","6771.038","92.415","581.224","204.582"
"GENERATED VIA SPACETRACK.ORG API","JSPOC","40881","GSLV R/B","ROCKET BODY","U","15041B","2016-01-08 11:50:03","120288","2.45783033","0.7190329","20.3099","34.7597","277.4933","12.9412","0","999","313","0.0011796","0.00289258","1.3053e-06","1977705","0 GSLV R/B","1 40881U 15041B   16008.49309167  .00289258  13053-5  11796-2 0  9993","2 40881  20.3099  34.7597 7190329 277.4933  12.9412  2.45783033  3138","2015-041B","40881","23193.550","585.882","33492.341","138.489"
"GENERATED VIA SPACETRACK.ORG API","JSPOC","4071","SL-8 R/B","ROCKET BODY","U","69070B","2016-01-08 11:50:03","45120","14.62452582","0.0012661","74.0487","47.5055","166.1701","193.9815","0","999","46095","3.4541e-05","1.45e-06","0","1978186","0 SL-8 R/B","1  4071U 69070B   16008.49309080 +.00000145 +00000-0 +34541-4 0  9993","2  4071 074.0487 047.5055 0012661 166.1701 193.9815 14.62452582460957","1969-070B","4071","7063.402","98.464","694.210","676.324"
"GENERATED VIA SPACETRACK.ORG API","JSPOC","14064","COSMOS 1461","PAYLOAD","U","83044A","2016-01-08 11:50:15","861696","14.92452957","0.0123194","65.003","110.182","255.9931","102.7462","0","999","64486","0.00017899","1.954e-05","0","1977686","0 COSMOS 1461","1 14064U 83044A   16008.49323914  .00001954  00000-0  17899-3 0  9990","2 14064  65.0030 110.1820 0123194 255.9931 102.7462 14.92452957644866","1983-044A","14064","6968.426","96.485","676.138","504.444"
"GENERATED VIA SPACETRACK.ORG API","JSPOC","39508","ABS 2","PAYLOAD","U","14006A","2016-01-08 11:50:21","469056","1.00272082","0.000329","0.0217","325.5329","332.8191","61.612","0","999","710","0","-7.9e-07","0","1977821","0 ABS 2","1 39508U 14006A   16008.49330404 -.00000079  00000-0  00000+0 0  9994","2 39508   0.0217 325.5329 0003290 332.8191  61.6120  1.00272082  7103","2014-006A","39508","42164.648","1436.092","35800.385","35772.641"
"GENERATED VIA SPACETRACK.ORG API","JSPOC","39508","ABS 2","PAYLOAD","U","14006A","2016-01-08 11:50:21","591744","1.00272058","0.0003294","0.0216","326.5733","331.9559","61.4348","0","999","711","0","-7.9e-07","0","1978186","0 ABS 2","1 39508U 14006A   16008.49330546 -.00000079 +00000-0 +00000-0 0  9992","2 39508 000.0216 326.5733 0003294 331.9559 061.4348 01.00272058007118","2014-006A","39508","42164.655","1436.092","35800.409","35772.631"
"GENERATED VIA SPACETRACK.ORG API","JSPOC","25598","SL-12 R/B(2)","ROCKET BODY","U","98077F","2016-01-08 11:50:36","264192","2.13407925","0.0009213","63.2604","194.5208","273.8192","99.2827","0","999","13262","0","1.07e-06","0","1978186","0 SL-12 R/B(2)","1 25598U 98077F   16008.49347528 +.00000107 +00000-0 +00000-0 0  9995","2 25598 063.2604 194.5208 0009213 273.8192 099.2827 02.13407925132622","1998-077F","25598","25483.641","674.764","19128.984","19082.027"
"GENERATED VIA SPACETRACK.ORG API","JSPOC","23641","DELTA 2 R/B(2)","ROCKET BODY","U","95041C","2016-01-08 11:50:49","818624","2.70395056","0.6425214","20.6654","33.3288","349.4259","196.4519","0","999","20188","0","-1.5e-07","0","1978186","0 DELTA 2 R/B(2)","1 23641U 95041C   16008.49363216 -.00000015 +00000-0 +00000-0 0  9991","2 23641 020.6654 033.3288 6425214 349.4259 196.4519 02.70395056201889","1995-041C","23641","21763.864","532.554","29369.477","1401.980"
"GENERATED VIA SPACETRACK.ORG API","JSPOC","39769","RISING 2","PAYLOAD","U","14029D","2016-01-08 11:50:54","620736","14.81593601","0.0004093","97.8747","105.724","168.114","192.0169","0","999","8797","5.6255e-05","3.9e-06","0","1977655","0 RISING 2","1 39769U 14029D   16008.49368774  .00000390  00000-0  56255-4 0  9992","2 39769  97.8747 105.7240 0004093 168.1140 192.0169 14.81593601 87971","2014-029D","39769","7002.435","97.192","627.166","621.434"
"GENERATED VIA SPACETRACK.ORG API","JSPOC","41039","CZ-4C R/B","ROCKET BODY","U","15069B","2016-01-08 11:50:55","299840","15.04877225","0.0096594","97.7893","356.0712","253.3698","105.6903","0","999","641","0.00011615","1.748e-05","0","1977705","0 CZ-4C R/B","1 41039U 15069B   16008.49369560  .00001748  00000-0  11615-3 0  9992","2 41039  97.7893 356.0712 0096594 253.3698 105.6903 15.04877225  6411","2015-069B","41039","6930.019","95.688","618.824","484.944"
"GENERATED VIA SPACETRACK.ORG API","JSPOC","9661","METEOR 2-2","PAYLOAD","U","77002A","2016-01-08 11:50:57","522912","14.03501769","0.0009808","81.2656","157.5237","232.0046","128.0236","0","999","99571","2.407e-05","5e-07","0","1977602","0 METEOR 2-2","1 09661U 77002A   16008.49372133  .00000050  00000-0  24070-4 0  9997","2 09661  81.2656 157.5237 0009808 232.0046 128.0236 14.03501769995713","1977-002A","9661","7259.831","102.600","888.816","874.575"
"GENERATED VIA SPACETRACK.ORG API","JSPOC","15334","SL-12 R/B(2)","ROCKET BODY","U","84106B","2016-01-08 11:50:58","842240","14.14922987","0.0003316","71.0023","67.3006","351.801","8.3058","0","999","49478","7.4119e-05","9.6e-07","0","1977655","0 SL-12 R/B(2)","1 15334U 84106B   16008.49373660  .00000096  00000-0  74119-4 0  9999","2 15334  71.0023  67.3006 0003316 351.8010   8.3058 14.14922987494787","1984-106B","15334","7220.711","101.772","844.970","840.181"
"GENERATED VIA SPACETRACK.ORG API","JSPOC","19548","TDRS 3","PAYLOAD","U","88091B","2016-01-08 11:51:08","99136","1.0027822","0.0039757","14.7437","13.7624","303.6584","265.5197","0","999","8713","0","-2.94e-06","0","1977617","0 TDRS 3","1 19548U 88091B   16008.49384374 -.00000294  00000-0  00000+0 0  9995","2 19548  14.7437  13.7624 0039757 303.6584 265.5197  1.00278220 87134","1988-091B","19548","42162.928","1436.004","35952.420","35617.165"
"GENERATED VIA SPACETRACK.ORG API","JSPOC","10588","COSMOS 981","PAYLOAD","U","78005F","2016-01-08 11:51:08","304768","12.46415446","0.0019545","74.0313","118.5872","68.9881","4.8615","0","999","72887","-0.00010498","-3.1e-07","0","1977702","0 COSMOS 981","1 10588U 78005F   16008.49384612 -.00000031  00000-0 -10498-3 0  9995","2 10588  74.0313 118.5872 0019545  68.9881   4.8615 12.46415446728871","1978-005F","10588","7857.661","115.531","1494.883","1464.168"
"GENERATED VIA SPACETRACK.ORG API","JSPOC","32254","ARIANE 5 R/B","ROCKET BODY","U","07044C","2016-01-08 11:51:14","342400","2.46346336","0.7081125","4.4533","262.5441","304.7921","7.8531","0","999","7394","-3.6952e-05","1.99e-06","0","1978186","0 ARIANE 5 R/B","1 32254U 07044C   16008.49391600 +.00000199 +00000-0 -36952-4 0  9997","2 32254 004.4533 262.5441 7081125 304.7921 007.8531 02.46346336073945","2007-044C","32254","23158.180","584.542","33178.642","381.448"
"GENERATED VIA SPACETRACK.ORG API","JSPOC","11869","COSMOS 1190","PAYLOAD","U","80056A","2016-01-08 11:51:23","117184","14.33498953","0.0014522","74.045","166.3557","228.5274","131.4631","0","999","85658","3.1255e-05","6e-07","0","1977696","0 COSMOS 1190","1 11869U 80056A   16008.49401756  .00000060  00000-0  31255-4 0  9991","2 11869  74.0450 166.3557 0014522 228.5274 131.4631 14.33498953856584","1980-056A","11869","7158.196","100.453","790.456","769.665"
"GENERATED VIA SPACETRACK.ORG API","JSPOC","40959","LINGQIAO VIDEO A","PAYLOAD","U","15057B","2016-01-08 11:51:31","849632","14.72937826","0.0017383","98.0317","85.4054","314.2056","45.7723","0","999","1374","4.2508e-05","2.22e-06","0","1977650","0 LINGQIAO VIDEO A","1 40959U 15057B   16008.49411863  .00000222  00000-0  42508-4 0  9995","2 40959  98.0317  85.4054 0017383 314.2056  45.7723 14.72937826 13748","2015-057B","40959","7029.842","97.763","663.926","639.487"
"GENERATED VIA SPACETRACK.ORG API","JSPOC","26476","DM-F3","PAYLOAD","U","00048A","2016-01-08 11:51:40","561344","4.77412704","0.5620678","27.3294","77.089","134.4939","288.1047","0","999","23648","5.5514e-05","0.00022923","0","1977606","0 DM-F3","1 26476U 00048A   16008.49421946  .00022923 -16841-6  55514-4 0  9990","2 26476  27.3294  77.0890 5620678 134.4939 288.1047  4.77412704236481","2000-048A","26476","14898.385","301.625","16894.152","146.347"
"GENERATED VIA SPACETRACK.ORG API","JSPOC","39484","COSMOS 2489","PAYLOAD","U","13076B","2016-01-08 11:51:50","464512","12.42895535","0.0023166","82.4873","24.9827","125.702","234.622","0","999","9251","0","1e-07","0","1977688","0 COSMOS 2489","1 39484U 13076B   16008.49433408  .00000010  00000-0  00000+0 0  9995","2 39484  82.4873  24.9827 0023166 125.7020 234.6220 12.42895535 92519","2013-076B","39484","7872.489","115.858","1512.591","1476.117"
"GENERATED VIA SPACETRACK.ORG API","JSPOC","31698","TERRA SAR X","PAYLOAD","U","07026A","2016-01-08 11:51:59","355072","15.19144253","0.0001967","97.4456","17.6492","84.6285","35.8506","0","999","47506","-2.3176e-05","-5.54e-06","0","1977598","0 TERRA SAR X","1 31698U 07026A   16008.49443698 -.00000554  00000-0 -23176-4 0  9993","2 31698  97.4456  17.6492 0001967  84.6285  35.8506 15.19144253475063","2007-026A","31698","6886.562","94.790","509.782","507.072"
